IRIDIUM 150             
1 43257U 18030J   23314.11022295  .00000032  00000+0  42938-5 0  9993
2 43257  86.3951 327.5472 0002279 101.1180 259.0272 14.34211273294007
IRIDIUM 143             
1 43258U 18030K   23313.95166842  .00000430  00000+0  14642-3 0  9993
2 43258  86.3954 327.6685 0002450  94.0489 266.0987 14.34221595293896
IRIDIUM 161             
1 43478U 18047C   23313.92044454  .00000299  00000+0  82965-4 0  9993
2 43478  86.4459 125.6549 0002011  91.2913 268.8518 14.43280150288076
IRIDIUM 152             
1 43479U 18047D   23313.92438864  .00000223  00000+0  72484-4 0  9998
2 43479  86.3933 125.5129 0002333  89.0017 271.1446 14.34220536286283
IRIDIUM 147             
1 43480U 18047E   23314.48886399  .00000218  00000+0  70742-4 0  9991
2 43480  86.3934 125.2654 0001853  89.0180 271.1228 14.34219741286366
IRIDIUM 110             
1 43481U 18047F   23313.93705711  .00000235  00000+0  76779-4 0  9994
2 43481  86.3937 125.5632 0001740  91.6689 268.4706 14.34219077286279
IRIDIUM 162             
1 43482U 18047G   23313.91416736  .00000309  00000+0  85972-4 0  9996
2 43482  86.4458 125.5605 0002034  91.3280 268.8154 14.43285705288061
IRIDIUM 160             
1 43569U 18061A   23313.88289346  .00000661  00000+0  22895-3 0  9994
2 43569  86.3935  93.9410 0002056  81.1860 278.9568 14.34211559277169
